ATLAS CENTAUR R/B       
1 06155U 72065B   26038.28770270  .00001842  00000+0  25445-3 0  9996
2 06155  35.0010 123.9057 0033127 114.6511 245.7645 14.77597814836766
SL-8 R/B                
1 08459U 75112B   26038.52283589  .00000250  00000+0  90789-4 0  9996
2 08459  74.0593  74.4096 0015460 178.1390 181.9824 14.38188718627536
SL-3 R/B                
1 10114U 77057B   26038.92696333  .00014401  00000+0  31080-3 0  9997
2 10114  97.5734 209.5660 0008072  37.6193 322.5618 15.44627408663731
SEASAT 1                
1 10967U 78064A   26038.95933058  .00000385  00000+0  14598-3 0  9994
2 10967 108.0163  63.1064 0001579 291.4180  68.6797 14.46135871502214
SL-14 R/B               
1 11267U 79011B   26038.73395251  .00000867  00000+0  83157-4 0  9997
2 11267  82.5255 124.9937 0016732 152.9911 207.2183 14.91871220524311
SL-8 R/B                
1 11574U 79089B   26038.71270478  .00000404  00000+0  13011-3 0  9992
2 11574  74.0698 146.5321 0016527 322.9540  37.0474 14.42331914431782
SL-14 R/B               
1 11672U 80005B   26038.86153104  .00000954  00000+0  94162-4 0  9990
2 11672  82.5173 335.5214 0014112 262.5976  97.3639 14.90890495472047
SL-8 R/B                
1 12139U 81003B   26038.85653830  .00022436  00000+0  59494-3 0  9995
2 12139  82.9393 317.5857 0263427 282.8393  74.3527 15.09891789310174
SL-3 R/B                
1 12465U 81046B   26038.92601383  .00014002  00000+0  33443-3 0  9994
2 12465  81.2341 325.4537 0020660 119.6209 240.7095 15.41156452433843
SL-3 R/B                
1 12904U 81103B   26038.90878784  .00006203  00000+0  27787-3 0  9993
2 12904  81.1564 248.3641 0013768  29.2311 330.9687 15.21015496968704
SL-3 R/B                
1 13068U 82013B   26038.92967081  .00005303  00000+0  23192-3 0  9993
2 13068  81.1741 195.6367 0021732 280.7791  79.0994 15.21682096399827
SL-3 R/B                
1 13154U 82039B   26038.90349858  .00002777  00000+0  16810-3 0  9992
2 13154  81.1614 250.2943 0030072  61.9537 298.4724 15.09915207377142
