CCSDS_OMM_VERS = 2.0
CREATION_DATE  = 
ORIGINATOR     = 

OBJECT_NAME    = ATLAS CENTAUR R/B
OBJECT_ID      = 1972-065B
CENTER_NAME    = EARTH
REF_FRAME      = TEME
TIME_SYSTEM    = UTC
MEAN_ELEMENT_THEORY = SGP/SGP4

EPOCH          = 2026-02-07T06:54:17.513280
MEAN_MOTION    = 14.77597814
ECCENTRICITY   = .0033127
INCLINATION    = 35.0010
RA_OF_ASC_NODE = 123.9057
ARG_OF_PERICENTER = 114.6511
MEAN_ANOMALY   = 245.7645

EPHEMERIS_TYPE = 0
CLASSIFICATION_TYPE = U
NORAD_CAT_ID   = 6155
ELEMENT_SET_NO = 999
REV_AT_EPOCH   = 83676
BSTAR          = .25445E-3
MEAN_MOTION_DOT = .1842E-4
MEAN_MOTION_DDOT = 0

CCSDS_OMM_VERS = 2.0
CREATION_DATE  = 
ORIGINATOR     = 

OBJECT_NAME    = SL-8 R/B
OBJECT_ID      = 1975-112B
CENTER_NAME    = EARTH
REF_FRAME      = TEME
TIME_SYSTEM    = UTC
MEAN_ELEMENT_THEORY = SGP/SGP4

EPOCH          = 2026-02-07T12:32:53.020896
MEAN_MOTION    = 14.38188718
ECCENTRICITY   = .00154608
INCLINATION    = 74.0593
RA_OF_ASC_NODE = 74.4096
ARG_OF_PERICENTER = 178.1390
MEAN_ANOMALY   = 181.9824

EPHEMERIS_TYPE = 0
CLASSIFICATION_TYPE = U
NORAD_CAT_ID   = 8459
ELEMENT_SET_NO = 999
REV_AT_EPOCH   = 62753
BSTAR          = .90788752E-4
MEAN_MOTION_DOT = .25E-5
MEAN_MOTION_DDOT = 0

CCSDS_OMM_VERS = 2.0
CREATION_DATE  = 
ORIGINATOR     = 

OBJECT_NAME    = SL-3 R/B
OBJECT_ID      = 1977-057B
CENTER_NAME    = EARTH
REF_FRAME      = TEME
TIME_SYSTEM    = UTC
MEAN_ELEMENT_THEORY = SGP/SGP4

EPOCH          = 2026-02-07T22:14:49.631712
MEAN_MOTION    = 15.44627408
ECCENTRICITY   = .0008072
INCLINATION    = 97.5734
RA_OF_ASC_NODE = 209.5660
ARG_OF_PERICENTER = 37.6193
MEAN_ANOMALY   = 322.5618

EPHEMERIS_TYPE = 0
CLASSIFICATION_TYPE = U
NORAD_CAT_ID   = 10114
ELEMENT_SET_NO = 999
REV_AT_EPOCH   = 66373
BSTAR          = .31080434E-3
MEAN_MOTION_DOT = .14401E-3
MEAN_MOTION_DDOT = 0

CCSDS_OMM_VERS = 2.0
CREATION_DATE  = 
ORIGINATOR     = 

OBJECT_NAME    = SEASAT 1
OBJECT_ID      = 1978-064A
CENTER_NAME    = EARTH
REF_FRAME      = TEME
TIME_SYSTEM    = UTC
MEAN_ELEMENT_THEORY = SGP/SGP4

EPOCH          = 2026-02-07T23:01:26.162112
MEAN_MOTION    = 14.46135871
ECCENTRICITY   = .00015798
INCLINATION    = 108.0163
RA_OF_ASC_NODE = 63.1064
ARG_OF_PERICENTER = 291.4180
MEAN_ANOMALY   = 68.6797

EPHEMERIS_TYPE = 0
CLASSIFICATION_TYPE = U
NORAD_CAT_ID   = 10967
ELEMENT_SET_NO = 999
REV_AT_EPOCH   = 50221
BSTAR          = .1459808E-3
MEAN_MOTION_DOT = .385E-5
MEAN_MOTION_DDOT = 0

CCSDS_OMM_VERS = 2.0
CREATION_DATE  = 
ORIGINATOR     = 

OBJECT_NAME    = SL-14 R/B
OBJECT_ID      = 1979-011B
CENTER_NAME    = EARTH
REF_FRAME      = TEME
TIME_SYSTEM    = UTC
MEAN_ELEMENT_THEORY = SGP/SGP4

EPOCH          = 2026-02-07T17:36:53.496864
MEAN_MOTION    = 14.91871220
ECCENTRICITY   = .00167329
INCLINATION    = 82.5255
RA_OF_ASC_NODE = 124.9937
ARG_OF_PERICENTER = 152.9911
MEAN_ANOMALY   = 207.2183

EPHEMERIS_TYPE = 0
CLASSIFICATION_TYPE = U
NORAD_CAT_ID   = 11267
ELEMENT_SET_NO = 999
REV_AT_EPOCH   = 52431
BSTAR          = .8315672E-4
MEAN_MOTION_DOT = .867E-5
MEAN_MOTION_DDOT = 0

CCSDS_OMM_VERS = 2.0
CREATION_DATE  = 
ORIGINATOR     = 

OBJECT_NAME    = SL-8 R/B
OBJECT_ID      = 1979-089B
CENTER_NAME    = EARTH
REF_FRAME      = TEME
TIME_SYSTEM    = UTC
MEAN_ELEMENT_THEORY = SGP/SGP4

EPOCH          = 2026-02-07T17:06:17.692992
MEAN_MOTION    = 14.42331914
ECCENTRICITY   = .00165275
INCLINATION    = 74.0698
RA_OF_ASC_NODE = 146.5321
ARG_OF_PERICENTER = 322.9540
MEAN_ANOMALY   = 37.0474

EPHEMERIS_TYPE = 0
CLASSIFICATION_TYPE = U
NORAD_CAT_ID   = 11574
ELEMENT_SET_NO = 999
REV_AT_EPOCH   = 43178
BSTAR          = .13010972E-3
MEAN_MOTION_DOT = .404E-5
MEAN_MOTION_DDOT = 0

CCSDS_OMM_VERS = 2.0
CREATION_DATE  = 
ORIGINATOR     = 

OBJECT_NAME    = SL-14 R/B
OBJECT_ID      = 1980-005B
CENTER_NAME    = EARTH
REF_FRAME      = TEME
TIME_SYSTEM    = UTC
MEAN_ELEMENT_THEORY = SGP/SGP4

EPOCH          = 2026-02-07T20:40:36.281856
MEAN_MOTION    = 14.90890495
ECCENTRICITY   = .00141124
INCLINATION    = 82.5173
RA_OF_ASC_NODE = 335.5214
ARG_OF_PERICENTER = 262.5976
MEAN_ANOMALY   = 97.3639

EPHEMERIS_TYPE = 0
CLASSIFICATION_TYPE = U
NORAD_CAT_ID   = 11672
ELEMENT_SET_NO = 999
REV_AT_EPOCH   = 47204
BSTAR          = .94162194E-4
MEAN_MOTION_DOT = .954E-5
MEAN_MOTION_DDOT = 0

CCSDS_OMM_VERS = 2.0
CREATION_DATE  = 
ORIGINATOR     = 

OBJECT_NAME    = SL-8 R/B
OBJECT_ID      = 1981-003B
CENTER_NAME    = EARTH
REF_FRAME      = TEME
TIME_SYSTEM    = UTC
MEAN_ELEMENT_THEORY = SGP/SGP4

EPOCH          = 2026-02-07T20:33:24.909120
MEAN_MOTION    = 15.09891789
ECCENTRICITY   = .02634273
INCLINATION    = 82.9393
RA_OF_ASC_NODE = 317.5857
ARG_OF_PERICENTER = 282.8393
MEAN_ANOMALY   = 74.3527

EPHEMERIS_TYPE = 0
CLASSIFICATION_TYPE = U
NORAD_CAT_ID   = 12139
ELEMENT_SET_NO = 999
REV_AT_EPOCH   = 31017
BSTAR          = .59493811E-3
MEAN_MOTION_DOT = .22436E-3
MEAN_MOTION_DDOT = 0

CCSDS_OMM_VERS = 2.0
CREATION_DATE  = 
ORIGINATOR     = 

OBJECT_NAME    = SL-3 R/B
OBJECT_ID      = 1981-046B
CENTER_NAME    = EARTH
REF_FRAME      = TEME
TIME_SYSTEM    = UTC
MEAN_ELEMENT_THEORY = SGP/SGP4

EPOCH          = 2026-02-07T22:13:27.594912
MEAN_MOTION    = 15.41156452
ECCENTRICITY   = .00206606
INCLINATION    = 81.2341
RA_OF_ASC_NODE = 325.4537
ARG_OF_PERICENTER = 119.6209
MEAN_ANOMALY   = 240.7095

EPHEMERIS_TYPE = 0
CLASSIFICATION_TYPE = U
NORAD_CAT_ID   = 12465
ELEMENT_SET_NO = 999
REV_AT_EPOCH   = 43384
BSTAR          = .33443283E-3
MEAN_MOTION_DOT = .14002E-3
MEAN_MOTION_DDOT = 0

CCSDS_OMM_VERS = 2.0
CREATION_DATE  = 
ORIGINATOR     = 

OBJECT_NAME    = SL-3 R/B
OBJECT_ID      = 1981-103B
CENTER_NAME    = EARTH
REF_FRAME      = TEME
TIME_SYSTEM    = UTC
MEAN_ELEMENT_THEORY = SGP/SGP4

EPOCH          = 2026-02-07T21:48:39.269376
MEAN_MOTION    = 15.21015496
ECCENTRICITY   = .00137686
INCLINATION    = 81.1564
RA_OF_ASC_NODE = 248.3641
ARG_OF_PERICENTER = 29.2311
MEAN_ANOMALY   = 330.9687

EPHEMERIS_TYPE = 0
CLASSIFICATION_TYPE = U
NORAD_CAT_ID   = 12904
ELEMENT_SET_NO = 999
REV_AT_EPOCH   = 96870
BSTAR          = .27786829E-3
MEAN_MOTION_DOT = .6203E-4
MEAN_MOTION_DDOT = 0

CCSDS_OMM_VERS = 2.0
CREATION_DATE  = 
ORIGINATOR     = 

OBJECT_NAME    = SL-3 R/B
OBJECT_ID      = 1982-013B
CENTER_NAME    = EARTH
REF_FRAME      = TEME
TIME_SYSTEM    = UTC
MEAN_ELEMENT_THEORY = SGP/SGP4

EPOCH          = 2026-02-07T22:18:43.557984
MEAN_MOTION    = 15.21682096
ECCENTRICITY   = .00217325
INCLINATION    = 81.1741
RA_OF_ASC_NODE = 195.6367
ARG_OF_PERICENTER = 280.7791
MEAN_ANOMALY   = 79.0994

EPHEMERIS_TYPE = 0
CLASSIFICATION_TYPE = U
NORAD_CAT_ID   = 13068
ELEMENT_SET_NO = 999
REV_AT_EPOCH   = 39982
BSTAR          = .23191602E-3
MEAN_MOTION_DOT = .5303E-4
MEAN_MOTION_DDOT = 0

CCSDS_OMM_VERS = 2.0
CREATION_DATE  = 
ORIGINATOR     = 

OBJECT_NAME    = SL-3 R/B
OBJECT_ID      = 1982-039B
CENTER_NAME    = EARTH
REF_FRAME      = TEME
TIME_SYSTEM    = UTC
MEAN_ELEMENT_THEORY = SGP/SGP4

EPOCH          = 2026-02-07T21:41:02.277312
MEAN_MOTION    = 15.09915207
ECCENTRICITY   = .00300727
INCLINATION    = 81.1614
RA_OF_ASC_NODE = 250.2943
ARG_OF_PERICENTER = 61.9537
MEAN_ANOMALY   = 298.4724

EPHEMERIS_TYPE = 0
CLASSIFICATION_TYPE = U
NORAD_CAT_ID   = 13154
ELEMENT_SET_NO = 999
REV_AT_EPOCH   = 37714
BSTAR          = .1680983E-3
MEAN_MOTION_DOT = .2777E-4
MEAN_MOTION_DDOT = 0

